HULIANWANG DIGUI-124    
1 67064U 25295F   26201.11860898 -.00000100  00000+0  51678-4 0  9990
2 67064  49.9992 267.2316 0001132 210.0650 150.0158 13.29329463 29884
HULIANWANG DIGUI-125    
1 67065U 25295G   26201.18536646 -.00000100  00000+0  51749-4 0  9998
2 67065  49.9982 266.9014 0001109 209.3955 150.6855 13.29330083 29899
HULIANWANG DIGUI-126    
1 67066U 25295H   26201.17700117 -.00000097  00000+0  57783-4 0  9993
2 67066  49.9987 266.8625 0001145 206.0959 153.9856 13.29322989 29893
HULIANWANG DIGUI-127    
1 67067U 25295J   26201.24375339 -.00000097  00000+0  58220-4 0  9993
2 67067  50.0004 266.5843 0001138 209.5023 150.5785 13.29331183 29900
HULIANWANG DIGUI-128    
1 67236U 25311A   26201.11551757 -.00000109  00000+0  31751-4 0  9990
2 67236  50.0100 357.4615 0000915  91.1031 268.9946 13.29323832 27721
HULIANWANG DIGUI-129    
1 67237U 25311B   26200.82307648 -.00000118  00000+0  13423-4 0  9992
2 67237  50.0090 358.5644 0000861  91.8785 268.2186 13.29325002 27682
HULIANWANG DIGUI-130    
1 67238U 25311C   26201.17397859 -.00000108  00000+0  33643-4 0  9990
2 67238  50.0073 357.7074 0000937  91.3297 268.7682 13.29323758 27726
HULIANWANG DIGUI-131    
1 67239U 25311D   26201.10716565 -.00000117  00000+0  14447-4 0  9994
2 67239  50.0068 358.0124 0000970  89.9131 270.1852 13.29323461 27714
HULIANWANG DIGUI-132    
1 67240U 25311E   26201.15724921 -.00000119  00000+0  11060-4 0  9996
2 67240  50.0078 357.6340 0000901  90.3597 269.7379 13.29324287 27724
HULIANWANG DIGUI-133    
1 67241U 25311F   26200.68949257 -.00000126  00000+0 -35216-5 0  9994
2 67241  50.0122 359.2413 0000887  90.4703 269.6271 13.29324188 27660
HULIANWANG DIGUI-134    
1 67242U 25311G   26200.84817291 -.00000115  00000+0  20202-4 0  9990
2 67242  50.0050 358.6271 0000908  90.0608 270.0368 13.29324020 27680
HULIANWANG DIGUI-135    
1 67243U 25311H   26201.16560263 -.00000114  00000+0  21636-4 0  9992
2 67243  50.0036 357.6105 0000914  90.6266 269.4711 13.29323777 27720
HULIANWANG DIGUI-136    
1 67244U 25311J   26200.83145360 -.00000117  00000+0  14254-4 0  9994
2 67244  50.0111 358.6386 0000845  93.0672 267.0296 13.29324652 27688
HULIANWANG DIGUI-137    
1 67435U 26007A   26201.31000975 -.00000098  00000+0  56808-4 0  9994
2 67435  50.0100 327.0645 0000899 129.9150 230.1802 13.29327173 25194
HULIANWANG DIGUI-138    
1 67436U 26007B   26200.72531798 -.00000104  00000+0  43717-4 0  9994
2 67436  50.0078 329.2767 0000879 129.0276 231.0674 13.29325411 25118
HULIANWANG DIGUI-139    
1 67437U 26007C   26201.31821804 -.00000094  00000+0  65187-4 0  9994
2 67437  50.0046 327.0300 0000853 118.9600 241.1358 13.29328488 25199
