{"fetched_at":"2026-07-20T18:29:26.415Z","source":"https://celestrak.org/NORAD/elements/gp.php?NAME=HULIANWANG&FORMAT=JSON","constellation":"guowang","records":[{"OBJECT_NAME":"HULIANWANG DIGUI-124","OBJECT_ID":"2025-295F","EPOCH":"2026-07-20T02:50:47.815872","CLASSIFICATION_TYPE":"U","MEAN_MOTION":13.29329463,"ECCENTRICITY":0.00011323,"INCLINATION":49.9992,"RA_OF_ASC_NODE":267.2316,"ARG_OF_PERICENTER":210.065,"MEAN_ANOMALY":150.0158,"EPHEMERIS_TYPE":0,"NORAD_CAT_ID":67064,"ELEMENT_SET_NO":999,"REV_AT_EPOCH":2988,"BSTAR":0.000051677626,"MEAN_MOTION_DOT":-0.000001,"MEAN_MOTION_DDOT":0},{"OBJECT_NAME":"HULIANWANG DIGUI-125","OBJECT_ID":"2025-295G","EPOCH":"2026-07-20T04:26:55.662144","CLASSIFICATION_TYPE":"U","MEAN_MOTION":13.29330083,"ECCENTRICITY":0.00011092,"INCLINATION":49.9982,"RA_OF_ASC_NODE":266.9014,"ARG_OF_PERICENTER":209.3955,"MEAN_ANOMALY":150.6855,"EPHEMERIS_TYPE":0,"NORAD_CAT_ID":67065,"ELEMENT_SET_NO":999,"REV_AT_EPOCH":2989,"BSTAR":0.000051749028,"MEAN_MOTION_DOT":-0.000001,"MEAN_MOTION_DDOT":0},{"OBJECT_NAME":"HULIANWANG DIGUI-126","OBJECT_ID":"2025-295H","EPOCH":"2026-07-20T04:14:52.901088","CLASSIFICATION_TYPE":"U","MEAN_MOTION":13.29322989,"ECCENTRICITY":0.00011456,"INCLINATION":49.9987,"RA_OF_ASC_NODE":266.8625,"ARG_OF_PERICENTER":206.0959,"MEAN_ANOMALY":153.9856,"EPHEMERIS_TYPE":0,"NORAD_CAT_ID":67066,"ELEMENT_SET_NO":999,"REV_AT_EPOCH":2989,"BSTAR":0.000057783289,"MEAN_MOTION_DOT":-9.7e-7,"MEAN_MOTION_DDOT":0},{"OBJECT_NAME":"HULIANWANG DIGUI-127","OBJECT_ID":"2025-295J","EPOCH":"2026-07-20T05:51:00.292896","CLASSIFICATION_TYPE":"U","MEAN_MOTION":13.29331183,"ECCENTRICITY":0.00011386,"INCLINATION":50.0004,"RA_OF_ASC_NODE":266.5843,"ARG_OF_PERICENTER":209.5023,"MEAN_ANOMALY":150.5785,"EPHEMERIS_TYPE":0,"NORAD_CAT_ID":67067,"ELEMENT_SET_NO":999,"REV_AT_EPOCH":2990,"BSTAR":0.000058219754,"MEAN_MOTION_DOT":-9.7e-7,"MEAN_MOTION_DDOT":0},{"OBJECT_NAME":"HULIANWANG DIGUI-128","OBJECT_ID":"2025-311A","EPOCH":"2026-07-20T02:46:20.718048","CLASSIFICATION_TYPE":"U","MEAN_MOTION":13.29323832,"ECCENTRICITY":0.00009156,"INCLINATION":50.01,"RA_OF_ASC_NODE":357.4615,"ARG_OF_PERICENTER":91.1031,"MEAN_ANOMALY":268.9946,"EPHEMERIS_TYPE":0,"NORAD_CAT_ID":67236,"ELEMENT_SET_NO":999,"REV_AT_EPOCH":2772,"BSTAR":0.000031751063,"MEAN_MOTION_DOT":-0.00000109,"MEAN_MOTION_DDOT":0},{"OBJECT_NAME":"HULIANWANG DIGUI-129","OBJECT_ID":"2025-311B","EPOCH":"2026-07-19T19:45:13.807872","CLASSIFICATION_TYPE":"U","MEAN_MOTION":13.29325002,"ECCENTRICITY":0.00008615,"INCLINATION":50.009,"RA_OF_ASC_NODE":358.5644,"ARG_OF_PERICENTER":91.8785,"MEAN_ANOMALY":268.2186,"EPHEMERIS_TYPE":0,"NORAD_CAT_ID":67237,"ELEMENT_SET_NO":999,"REV_AT_EPOCH":2768,"BSTAR":0.000013423142,"MEAN_MOTION_DOT":-0.00000118,"MEAN_MOTION_DDOT":0},{"OBJECT_NAME":"HULIANWANG DIGUI-130","OBJECT_ID":"2025-311C","EPOCH":"2026-07-20T04:10:31.750176","CLASSIFICATION_TYPE":"U","MEAN_MOTION":13.29323758,"ECCENTRICITY":0.00009378,"INCLINATION":50.0073,"RA_OF_ASC_NODE":357.7074,"ARG_OF_PERICENTER":91.3297,"MEAN_ANOMALY":268.7682,"EPHEMERIS_TYPE":0,"NORAD_CAT_ID":67238,"ELEMENT_SET_NO":999,"REV_AT_EPOCH":2772,"BSTAR":0.00003364297,"MEAN_MOTION_DOT":-0.00000108,"MEAN_MOTION_DDOT":0},{"OBJECT_NAME":"HULIANWANG DIGUI-131","OBJECT_ID":"2025-311D","EPOCH":"2026-07-20T02:34:19.112160","CLASSIFICATION_TYPE":"U","MEAN_MOTION":13.29323461,"ECCENTRICITY":0.00009703,"INCLINATION":50.0068,"RA_OF_ASC_NODE":358.0124,"ARG_OF_PERICENTER":89.9131,"MEAN_ANOMALY":270.1852,"EPHEMERIS_TYPE":0,"NORAD_CAT_ID":67239,"ELEMENT_SET_NO":999,"REV_AT_EPOCH":2771,"BSTAR":0.000014447196,"MEAN_MOTION_DOT":-0.00000117,"MEAN_MOTION_DDOT":0},{"OBJECT_NAME":"HULIANWANG DIGUI-132","OBJECT_ID":"2025-311E","EPOCH":"2026-07-20T03:46:26.331744","CLASSIFICATION_TYPE":"U","MEAN_MOTION":13.29324287,"ECCENTRICITY":0.00009015,"INCLINATION":50.0078,"RA_OF_ASC_NODE":357.634,"ARG_OF_PERICENTER":90.3597,"MEAN_ANOMALY":269.7379,"EPHEMERIS_TYPE":0,"NORAD_CAT_ID":67240,"ELEMENT_SET_NO":999,"REV_AT_EPOCH":2772,"BSTAR":0.000011060384,"MEAN_MOTION_DOT":-0.00000119,"MEAN_MOTION_DDOT":0},{"OBJECT_NAME":"HULIANWANG DIGUI-133","OBJECT_ID":"2025-311F","EPOCH":"2026-07-19T16:32:52.158048","CLASSIFICATION_TYPE":"U","MEAN_MOTION":13.29324188,"ECCENTRICITY":0.00008874,"INCLINATION":50.0122,"RA_OF_ASC_NODE":359.2413,"ARG_OF_PERICENTER":90.4703,"MEAN_ANOMALY":269.6271,"EPHEMERIS_TYPE":0,"NORAD_CAT_ID":67241,"ELEMENT_SET_NO":999,"REV_AT_EPOCH":2766,"BSTAR":-0.000003521587,"MEAN_MOTION_DOT":-0.00000126,"MEAN_MOTION_DDOT":0},{"OBJECT_NAME":"HULIANWANG DIGUI-134","OBJECT_ID":"2025-311G","EPOCH":"2026-07-19T20:21:22.139424","CLASSIFICATION_TYPE":"U","MEAN_MOTION":13.2932402,"ECCENTRICITY":0.00009085,"INCLINATION":50.005,"RA_OF_ASC_NODE":358.6271,"ARG_OF_PERICENTER":90.0608,"MEAN_ANOMALY":270.0368,"EPHEMERIS_TYPE":0,"NORAD_CAT_ID":67242,"ELEMENT_SET_NO":999,"REV_AT_EPOCH":2768,"BSTAR":0.000020201892,"MEAN_MOTION_DOT":-0.00000115,"MEAN_MOTION_DDOT":0},{"OBJECT_NAME":"HULIANWANG DIGUI-135","OBJECT_ID":"2025-311H","EPOCH":"2026-07-20T03:58:28.067232","CLASSIFICATION_TYPE":"U","MEAN_MOTION":13.29323777,"ECCENTRICITY":0.00009144,"INCLINATION":50.0036,"RA_OF_ASC_NODE":357.6105,"ARG_OF_PERICENTER":90.6266,"MEAN_ANOMALY":269.4711,"EPHEMERIS_TYPE":0,"NORAD_CAT_ID":67243,"ELEMENT_SET_NO":999,"REV_AT_EPOCH":2772,"BSTAR":0.000021636286,"MEAN_MOTION_DOT":-0.00000114,"MEAN_MOTION_DDOT":0},{"OBJECT_NAME":"HULIANWANG DIGUI-136","OBJECT_ID":"2025-311J","EPOCH":"2026-07-19T19:57:17.591040","CLASSIFICATION_TYPE":"U","MEAN_MOTION":13.29324652,"ECCENTRICITY":0.0000845,"INCLINATION":50.0111,"RA_OF_ASC_NODE":358.6386,"ARG_OF_PERICENTER":93.0672,"MEAN_ANOMALY":267.0296,"EPHEMERIS_TYPE":0,"NORAD_CAT_ID":67244,"ELEMENT_SET_NO":999,"REV_AT_EPOCH":2768,"BSTAR":0.000014253922,"MEAN_MOTION_DOT":-0.00000117,"MEAN_MOTION_DDOT":0},{"OBJECT_NAME":"HULIANWANG DIGUI-137","OBJECT_ID":"2026-007A","EPOCH":"2026-07-20T07:26:24.842400","CLASSIFICATION_TYPE":"U","MEAN_MOTION":13.29327173,"ECCENTRICITY":0.00008992,"INCLINATION":50.01,"RA_OF_ASC_NODE":327.0645,"ARG_OF_PERICENTER":129.915,"MEAN_ANOMALY":230.1802,"EPHEMERIS_TYPE":0,"NORAD_CAT_ID":67435,"ELEMENT_SET_NO":999,"REV_AT_EPOCH":2519,"BSTAR":0.0000568078,"MEAN_MOTION_DOT":-9.8e-7,"MEAN_MOTION_DDOT":0},{"OBJECT_NAME":"HULIANWANG DIGUI-138","OBJECT_ID":"2026-007B","EPOCH":"2026-07-19T17:24:27.473472","CLASSIFICATION_TYPE":"U","MEAN_MOTION":13.29325411,"ECCENTRICITY":0.0000879,"INCLINATION":50.0078,"RA_OF_ASC_NODE":329.2767,"ARG_OF_PERICENTER":129.0276,"MEAN_ANOMALY":231.0674,"EPHEMERIS_TYPE":0,"NORAD_CAT_ID":67436,"ELEMENT_SET_NO":999,"REV_AT_EPOCH":2511,"BSTAR":0.000043717051,"MEAN_MOTION_DOT":-0.00000104,"MEAN_MOTION_DDOT":0},{"OBJECT_NAME":"HULIANWANG DIGUI-139","OBJECT_ID":"2026-007C","EPOCH":"2026-07-20T07:38:14.038656","CLASSIFICATION_TYPE":"U","MEAN_MOTION":13.29328488,"ECCENTRICITY":0.00008534,"INCLINATION":50.0046,"RA_OF_ASC_NODE":327.03,"ARG_OF_PERICENTER":118.96,"MEAN_ANOMALY":241.1358,"EPHEMERIS_TYPE":0,"NORAD_CAT_ID":67437,"ELEMENT_SET_NO":999,"REV_AT_EPOCH":2519,"BSTAR":0.000065187063,"MEAN_MOTION_DOT":-9.4e-7,"MEAN_MOTION_DDOT":0}]}
